[{"OBJECT_NAME":"STARLINK-5286","OBJECT_ID":"2023-010AB","EPOCH":"2026-03-09T22:07:20.643744","MEAN_MOTION":14.98328114,"ECCENTRICITY":0.00029197,"INCLINATION":70.0004,"RA_OF_ASC_NODE":43.7492,"ARG_OF_PERICENTER":268.8951,"MEAN_ANOMALY":91.1874,"EPHEMERIS_TYPE":0,"CLASSIFICATION_TYPE":"U","NORAD_CAT_ID":55294,"ELEMENT_SET_NO":999,"REV_AT_EPOCH":17281,"BSTAR":8.547099e-6,"MEAN_MOTION_DOT":9.0e-8,"MEAN_MOTION_DDOT":0},{"OBJECT_NAME":"FENGYUN 1C DEB","OBJECT_ID":"1999-025BZN","EPOCH":"2026-03-03T04:13:23.729376","MEAN_MOTION":14.87557859,"ECCENTRICITY":0.01425437,"INCLINATION":98.383,"RA_OF_ASC_NODE":189.7124,"ARG_OF_PERICENTER":136.8849,"MEAN_ANOMALY":224.3635,"EPHEMERIS_TYPE":0,"CLASSIFICATION_TYPE":"U","NORAD_CAT_ID":31608,"ELEMENT_SET_NO":999,"REV_AT_EPOCH":99828,"BSTAR":0.0013394908,"MEAN_MOTION_DOT":0.00014627,"MEAN_MOTION_DDOT":0}]
